NORAD_CAT_ID,OBJECT_NAME,OBJECT_TYPE,EPOCH,MEAN_MOTION,ECCENTRICITY,INCLINATION,RA_OF_ASC_NODE,ARG_OF_PERICENTER,MEAN_ANOMALY,BSTAR,MEAN_MOTION_DOT,MEAN_MOTION_DDOT,TLE_LINE0,TLE_LINE1,TLE_LINE2,SEMIMAJOR_AXIS,PERIOD,APOGEE,PERIGEE,DECAYED
53825.0,STARLINK-4751,PAYLOAD,2024-01-16 13:28:38,15.0884199,0.0001405,53.2153,219.8626,85.3341,274.7812,0.00010998,1.463e-05,0.0,0 STARLINK-4751,1 53825U 22114H   24016.56155590  .00001463  00000-0  10998-3 0  9996,2 53825  53.2153 219.8626 0001405  85.3341 274.7812 15.08841990 74605,6917.874,95.437,540.711,538.767,0.0
53825.0,STARLINK-4751,PAYLOAD,2024-01-16 19:50:10,15.08844468,0.0001465,53.216,218.6741,89.0063,271.1097,0.00012372,1.682e-05,0.0,0 STARLINK-4751,1 53825U 22114H   24016.82651380  .00001682  00000-0  12372-3 0  9994,2 53825  53.2160 218.6741 0001465  89.0063 271.1097 15.08844468 74649,6917.867,95.437,540.745,538.718,0.0
53825.0,STARLINK-4751,PAYLOAD,2024-01-16 23:00:56,15.08846987,0.0001468,53.2162,218.0788,95.4394,264.6765,0.00014023,1.945e-05,0.0,0 STARLINK-4751,1 53825U 22114H   24016.95899106  .00001945  00000-0  14023-3 0  9995,2 53825  53.2162 218.0788 0001468  95.4394 264.6765 15.08846987 74127,6917.859,95.437,540.74,538.708,0.0
53825.0,STARLINK-4751,PAYLOAD,2024-01-17 19:40:58,15.08837195,0.0001356,53.2153,214.212,87.0405,273.0743,3.2514e-05,2.3e-06,0.0,0 STARLINK-4751,1 53825U 22114H   24017.82012024  .00000230  00000-0  32514-4 0  9990,2 53825  53.2153 214.2120 0001356  87.0405 273.0743 15.08837195 74256,6917.889,95.438,540.692,538.816,0.0
53825.0,STARLINK-4751,PAYLOAD,2024-01-18 13:10:12,15.08841467,0.0001321,53.2154,210.9404,88.3683,271.746,3.158e-07,-2.83e-06,0.0,0 STARLINK-4751,1 53825U 22114H   24018.54875910 -.00000283  00000-0  31580-6 0  9994,2 53825  53.2154 210.9404 0001321  88.3683 271.7460 15.08841467 74909,6917.876,95.437,540.655,538.827,0.0
53825.0,STARLINK-4751,PAYLOAD,2024-01-18 19:31:45,15.0884255,0.0001306,53.2155,209.7508,88.6106,271.5036,3.1815e-06,-2.37e-06,0.0,0 STARLINK-4751,1 53825U 22114H   24018.81371766 -.00000237  00000-0  31815-5 0  9993,2 53825  53.2155 209.7508 0001306  88.6106 271.5036 15.08842550 74942,6917.873,95.437,540.641,538.834,0.0
53825.0,STARLINK-4751,PAYLOAD,2024-01-19 13:00:59,15.08837543,0.0001299,53.2159,206.4795,79.8217,280.2922,8.7488e-05,1.105e-05,0.0,0 STARLINK-4751,1 53825U 22114H   24019.54235903  .00001105  00000-0  87488-4 0  9996,2 53825  53.2159 206.4795 0001299  79.8217 280.2922 15.08837543 75054,6917.888,95.438,540.652,538.854,0.0
53825.0,STARLINK-4751,PAYLOAD,2024-01-19 17:47:09,15.088378,0.0001301,53.2158,205.5874,83.3124,276.8016,8.3408e-05,1.04e-05,0.0,0 STARLINK-4751,1 53825U 22114H   24019.74107926  .00001040  00000-0  83408-4 0  9997,2 53825  53.2158 205.5874 0001301  83.3124 276.8016 15.08837800 74546,6917.887,95.438,540.652,538.852,0.0
53825.0,STARLINK-4751,PAYLOAD,2024-01-20 12:51:47,15.08834695,0.0001313,53.2158,202.0188,85.9741,274.1401,2.181e-05,5.9e-07,0.0,0 STARLINK-4751,1 53825U 22114H   24020.53596569  .00000059  00000-0  21810-4 0  9999,2 53825  53.2158 202.0188 0001313  85.9741 274.1401 15.08834695 75204,6917.897,95.438,540.67,538.853,0.0
53825.0,STARLINK-4751,PAYLOAD,2024-01-20 17:37:56,15.08835103,0.000131,53.2159,201.1265,85.6373,274.4768,1.9312e-05,1.9e-07,0.0,0 STARLINK-4751,1 53825U 22114H   24020.73468591  .00000019  00000-0  19312-4 0  9994,2 53825  53.2159 201.1265 0001310  85.6373 274.4768 15.08835103 74692,6917.895,95.438,540.667,538.854,0.0
53825.0,STARLINK-4751,PAYLOAD,2024-01-21 19:04:07,15.08837529,0.0001375,53.2166,196.3706,82.3898,277.7251,5.5349e-05,5.93e-06,0.0,0 STARLINK-4751,1 53825U 22114H   24021.79452658  .00000593  00000-0  55349-4 0  9995,2 53825  53.2166 196.3706 0001375  82.3898 277.7251 15.08837529 74857,6917.888,95.438,540.704,538.802,0.0
53825.0,STARLINK-4751,PAYLOAD,2024-01-22 18:54:53,15.08844397,0.0001208,53.2157,191.9095,82.7175,277.3955,0.00013336,1.835e-05,0.0,0 STARLINK-4751,1 53825U 22114H   24022.78812100  .00001835  00000-0  13336-3 0  9996,2 53825  53.2157 191.9095 0001208  82.7175 277.3955 15.08844397 75541,6917.867,95.437,540.568,538.896,0.0
53825.0,STARLINK-4751,PAYLOAD,2024-01-23 17:10:17,15.08847939,0.0001273,53.2158,187.7462,78.7314,281.3822,0.000109,1.448e-05,0.0,0 STARLINK-4751,1 53825U 22114H   24023.71547725  .00001448  00000-0  10900-3 0  9992,2 53825  53.2158 187.7462 0001273  78.7314 281.3822 15.08847939 75683,6917.856,95.437,540.602,538.84,0.0
53825.0,STARLINK-4751,PAYLOAD,2024-01-24 13:50:18,15.08840942,0.0001381,53.2165,183.8816,68.5944,291.5196,-4.0243e-05,-9.28e-06,0.0,0 STARLINK-4751,1 53825U 22114H   24024.57660653 -.00000928  00000-0 -40243-4 0  9991,2 53825  53.2165 183.8816 0001381  68.5944 291.5196 15.08840942 75816,6917.878,95.437,540.698,538.787,0.0
53825.0,STARLINK-4751,PAYLOAD,2024-01-24 17:01:05,15.08838616,0.0001329,53.2159,183.2853,77.3952,282.7189,-4.8105e-05,-1.053e-05,0.0,0 STARLINK-4751,1 53825U 22114H   24024.70908722 -.00001053  00000-0 -48105-4 0  9993,2 53825  53.2159 183.2853 0001329  77.3952 282.7189 15.08838616 75294,6917.885,95.438,540.669,538.83,0.0
53825.0,STARLINK-4751,PAYLOAD,2024-01-25 13:41:05,15.08840627,0.0001196,53.2163,179.418,92.7531,267.3598,-7.5778e-05,-1.494e-05,0.0,0 STARLINK-4751,1 53825U 22114H   24025.57020717 -.00001494  00000-0 -75778-4 0  9993,2 53825  53.2163 179.4180 0001196  92.7531 267.3598 15.08840627 75967,6917.878,95.438,540.571,538.916,0.0
53825.0,STARLINK-4751,PAYLOAD,2024-01-25 16:51:51,15.0884257,0.0001259,53.2164,178.8224,89.0112,271.1025,-4.8141e-05,-1.054e-05,0.0,0 STARLINK-4751,1 53825U 22114H   24025.70268510 -.00001054  00000-0 -48141-4 0  9999,2 53825  53.2164 178.8224 0001259  89.0112 271.1025 15.08842570 75983,6917.873,95.437,540.608,538.867,0.0
53825.0,STARLINK-4751,PAYLOAD,2024-01-26 13:31:53,15.08831552,0.0001392,53.217,174.9584,104.9095,255.2052,6.3421e-05,7.21e-06,0.0,0 STARLINK-4751,1 53825U 22114H   24026.56381101  .00000721  00000-0  63421-4 0  9992,2 53825  53.2170 174.9584 0001392 104.9095 255.2052 15.08831552 76118,6917.906,95.438,540.734,538.808,0.0
53825.0,STARLINK-4751,PAYLOAD,2024-01-26 16:42:39,15.08831742,0.0001328,53.2169,174.3645,97.6595,262.4548,6.0378e-05,6.73e-06,0.0,0 STARLINK-4751,1 53825U 22114H   24026.69629211  .00000673  00000-0  60378-4 0  9997,2 53825  53.2169 174.3645 0001328  97.6595 262.4548 15.08831742 75592,6917.906,95.438,540.689,538.852,0.0
53825.0,STARLINK-4751,PAYLOAD,2024-01-27 13:22:39,15.08843953,0.0001292,53.2172,170.5026,101.5593,258.5544,0.00010269,1.347e-05,0.0,0 STARLINK-4751,1 53825U 22114H   24027.55740529  .00001347  00000-0  10269-3 0  9991,2 53825  53.2172 170.5026 0001292 101.5593 258.5544 15.08843953 75724,6917.868,95.437,540.627,538.84,0.0
53825.0,STARLINK-4751,PAYLOAD,2024-01-27 18:08:48,15.08858649,0.0001224,53.2168,169.6031,94.68,265.4332,0.00023218,3.411e-05,0.0,0 STARLINK-4751,1 53825U 22114H   24027.75611166  .00003411  00000-0  23218-3 0  9999,2 53825  53.2168 169.6031 0001224  94.6800 265.4332 15.08858649 75755,6917.823,95.436,540.535,538.842,0.0
53825.0,STARLINK-4751,PAYLOAD,2024-01-28 10:02:41,15.0883163,9.99e-05,53.2161,166.6355,90.8154,269.2953,-1.571e-05,-5.38e-06,0.0,0 STARLINK-4751,1 53825U 22114H   24028.41853689 -.00000538  00000-0 -15710-4 0  9999,2 53825  53.2161 166.6355 0000999  90.8154 269.2953 15.08831630 75855,6917.906,95.438,540.462,539.08,0.0
53825.0,STARLINK-4751,PAYLOAD,2024-01-28 14:48:50,15.08832947,0.0001126,53.2162,165.7432,93.587,266.5251,-3.3416e-06,-3.41e-06,0.0,0 STARLINK-4751,1 53825U 22114H   24028.61725673 -.00000341  00000-0 -33416-5 0  9998,2 53825  53.2162 165.7432 0001126  93.5870 266.5251 15.08832947 76427,6917.902,95.438,540.546,538.988,0.0
53825.0,STARLINK-4751,PAYLOAD,2024-01-28 17:59:37,15.08835839,0.0001184,53.2169,165.149,95.5447,264.568,1.0953e-05,-1.14e-06,0.0,0 STARLINK-4751,1 53825U 22114H   24028.74973516 -.00000114  00000-0  10953-4 0  9990,2 53825  53.2169 165.1490 0001184  95.5447 264.5680 15.08835839 76447,6917.893,95.438,540.577,538.939,0.0
53825.0,STARLINK-4751,PAYLOAD,2024-01-29 08:18:04,15.08847621,0.0001191,53.2166,162.4701,104.9692,255.1432,-3.8434e-05,-9e-06,0.0,0 STARLINK-4751,1 53825U 22114H   24029.34588994 -.00000900  00000-0 -38434-4 0  9997,2 53825  53.2166 162.4701 0001191 104.9692 255.1432 15.08847621 75996,6917.857,95.437,540.546,538.898,0.0
53825.0,STARLINK-4751,PAYLOAD,2024-01-30 08:08:51,15.08838311,0.0001056,53.2164,158.01,98.1021,262.0091,0.00010802,1.432e-05,0.0,0 STARLINK-4751,1 53825U 22114H   24030.33949051  .00001432  00000-0  10802-3 0  9990,2 53825  53.2164 158.0100 0001056  98.1021 262.0091 15.08838311 76140,6917.886,95.438,540.481,539.02,0.0
53825.0,STARLINK-4751,PAYLOAD,2024-01-30 14:30:24,15.08836987,0.0001053,53.2165,156.82,97.3312,262.78,9.0979e-05,1.16e-05,0.0,0 STARLINK-4751,1 53825U 22114H   24030.60445294  .00001160  00000-0  90979-4 0  9992,2 53825  53.2165 156.8200 0001053  97.3312 262.7800 15.08836987 76725,6917.89,95.438,540.483,539.026,0.0
53825.0,STARLINK-4751,PAYLOAD,2024-01-31 17:31:57,15.0884395,0.0001066,53.2173,151.7637,97.128,262.9833,7.7417e-05,9.45e-06,0.0,0 STARLINK-4751,1 53825U 22114H   24031.73052807  .00000945  00000-0  77417-4 0  9993,2 53825  53.2173 151.7637 0001066  97.1280 262.9833 15.08843950 76353,6917.868,95.437,540.471,538.996,0.0
53825.0,STARLINK-4751,PAYLOAD,2024-02-01 11:01:12,15.08838031,0.0001145,53.218,148.4919,105.1124,254.9995,5.0017e-06,-2.08e-06,0.0,0 STARLINK-4751,1 53825U 22114H   24032.45917347 -.00000208  00000-0  50017-5 0  9993,2 53825  53.2180 148.4919 0001145 105.1124 254.9995 15.08838031 76468,6917.886,95.438,540.544,538.959,0.0
53825.0,STARLINK-4751,PAYLOAD,2024-02-01 14:11:59,15.0881303,0.0001235,53.2195,147.8965,97.6826,262.4307,0.00042158,6.423e-05,0.0,0 STARLINK-4751,1 53825U 22114H   24032.59165840  .00006423  00000-0  42158-3 0  9990,2 53825  53.2195 147.8965 0001235  97.6826 262.4307 15.08813030 76487,6917.963,95.439,540.682,538.973,0.0
